GLOBALSTAR M084         
1 38040U 11080A   24298.75765814 -.00000089  00000+0  81470-4 0  9994
2 38040  52.0027  45.2047 0000443 130.5706  26.4762 12.62268934592936
GLOBALSTAR M080         
1 38041U 11080B   24298.81281947 -.00000095  00000+0  46619-4 0  9995
2 38041  52.0078  46.5614 0000667 150.7610  16.6791 12.62267070593207
GLOBALSTAR M082         
1 38042U 11080C   24298.66765350 -.00000071  00000+0  18153-3 0  9999
2 38042  52.0103   2.4273 0000778  66.5246 101.1341 12.62268130593750
GLOBALSTAR M092         
1 38043U 11080D   24298.87816424 -.00000090  00000+0  77948-4 0  9991
2 38043  52.0070  92.1471 0000720  97.0566  67.8026 12.62268182592238
GLOBALSTAR M090         
1 38044U 11080E   24298.52918164 -.00000070  00000+0  18757-3 0  9998
2 38044  51.9913 356.9604 0000623  86.3130  52.0950 12.62269161593851
GLOBALSTAR M086         
1 38045U 11080F   24298.71632039 -.00000078  00000+0  14327-3 0  9991
2 38045  51.9924 356.9228 0001210 141.5402   8.2615 12.62268723593826
GLOBALSTAR M097         
1 39072U 13005A   24298.86850712 -.00000079  00000+0  13650-3 0  9996
2 39072  52.0043 270.7687 0000717  79.4140 280.6808 12.62272164541098
GLOBALSTAR M093         
1 39073U 13005B   24298.44583223 -.00000067  00000+0  20506-3 0  9996
2 39073  51.9805 265.7330 0000814  73.1729 286.9227 12.62266077540992
